GLOBALSTAR M023 [+]     
1 25621U 99004A   24107.79572372 -.00000050  00000+0  29904-3 0  9996
2 25621  52.0101 271.7628 0009534 263.6830 205.1123 12.62450439161872
GLOBALSTAR M036 [-]     
1 25623U 99004C   24107.80797312 -.00000055  00000+0  40039-3 0  9990
2 25623  51.9962 284.1297 0010673 315.3936 147.5886 11.86566849128365
GLOBALSTAR M038 [-]     
1 25624U 99004D   24107.59670561 -.00000058  00000+0  30935-3 0  9990
2 25624  51.9966 220.0709 0001624 224.7293 148.2189 12.32496957149734
GLOBALSTAR M022 [-]     
1 25649U 99012A   24107.90777549 -.00000076  00000+0  12864-3 0  9996
2 25649  52.0079   9.7028 0003102  49.0594  30.5689 12.02480112125093
GLOBALSTAR M041 [-]     
1 25650U 99012B   24107.64185473 -.00000043  00000+0  54404-3 0  9998
2 25650  52.0010 238.8720 0002595 177.7552 182.3297 11.96660401127212
GLOBALSTAR M046 [-]     
1 25651U 99012C   24108.07202826 -.00000056  00000+0  35792-3 0  9992
2 25651  52.0075 334.9473 0002915 112.5275  54.2113 12.09389235132456
GLOBALSTAR M037 [+]     
1 25652U 99012D   24108.23924368 -.00000071  00000+0  18435-3 0  9995
2 25652  52.0027  41.1901 0001890 340.8020 166.3859 12.62401333157522
